OBJECT_NAME,OBJECT_ID,EPOCH,MEAN_MOTION,ECCENTRICITY,INCLINATION,RA_OF_ASC_NODE,ARG_OF_PERICENTER,MEAN_ANOMALY,EPHEMERIS_TYPE,CLASSIFICATION_TYPE,NORAD_CAT_ID,ELEMENT_SET_NO,REV_AT_EPOCH,BSTAR,MEAN_MOTION_DOT,MEAN_MOTION_DDOT
GLOBALSTAR M069,2007-020C,2026-07-23T05:43:32.520576,12.23472604,.00014711,52.0020,150.0854,228.3389,277.9110,0,U,31573,999,88321,.28083581E-3,-.62E-6,0
GLOBALSTAR M072,2007-020D,2026-07-23T05:29:13.879104,11.91658762,.00016368,51.9954,4.2932,49.9640,121.0387,0,U,31574,999,87927,.3543041E-5,-.84E-6,0
GLOBALSTAR M066,2007-048C,2026-07-22T07:50:47.963328,12.30390412,.00054808,51.9610,317.0380,116.3209,278.9500,0,U,32265,999,86455,.59144625E-3,-.25E-6,0
GLOBALSTAR M079,2010-054A,2026-07-22T18:20:41.440128,12.62266424,.00011132,52.0059,0.3677,89.9803,309.6942,0,U,37188,999,72704,.26196411E-4,-.99E-6,0
GLOBALSTAR M074,2010-054B,2026-07-22T16:59:37.558176,12.62262042,.00008332,52.0038,359.7991,104.9572,278.6412,0,U,37189,999,72764,.616184E-5,-.103E-5,0
GLOBALSTAR M076,2010-054C,2026-07-22T20:16:02.094816,12.62262687,.00010806,52.0053,359.5904,102.3636,61.2519,0,U,37190,999,72737,.12609369E-3,-.81E-6,0
GLOBALSTAR M077,2010-054D,2026-07-23T02:31:24.438144,11.67547147,.00021482,51.9963,88.1305,239.9139,289.0346,0,U,37191,999,72533,-.19577933E-3,-.89E-6,0
GLOBALSTAR M075,2010-054E,2026-07-23T06:07:44.458752,12.62267910,.00007981,51.9957,40.3727,76.1708,96.2621,0,U,37192,999,72649,-.2683359E-5,-.104E-5,0
GLOBALSTAR M073,2010-054F,2026-07-23T07:16:22.572192,12.62266988,.00009599,52.0079,314.3577,109.0082,278.3995,0,U,37193,999,72849,.26151128E-4,-.99E-6,0
GLOBALSTAR M083,2011-033A,2026-07-23T03:46:42.237984,12.62258606,.000069,51.9852,262.9816,113.6176,272.9985,0,U,37739,999,69749,.73343859E-4,-.91E-6,0
GLOBALSTAR M088,2011-033B,2026-07-23T07:40:42.714048,12.62269562,.00001983,52.0195,168.9984,33.4122,130.8600,0,U,37740,999,69305,.86537532E-4,-.88E-6,0
GLOBALSTAR M091,2011-033C,2026-07-23T04:03:29.859840,12.62264327,.00006081,51.9992,132.3705,37.5082,101.4618,0,U,37741,999,69382,.15488907E-4,-.101E-5,0
GLOBALSTAR M085,2011-033D,2026-07-23T03:54:44.948736,12.62264550,.00009204,52.0129,83.7129,55.3823,115.9644,0,U,37742,999,69433,.7106489E-5,-.103E-5,0
GLOBALSTAR M081,2011-033E,2026-07-23T02:36:35.053056,12.62265450,.00007876,51.9961,86.2730,65.9975,98.4661,0,U,37743,999,69447,.15744358E-4,-.101E-5,0
GLOBALSTAR M089,2011-033F,2026-07-23T01:42:23.177376,12.62267686,.00007251,51.9941,40.5389,99.3141,75.2064,0,U,37744,999,69531,.29139683E-4,-.99E-6,0
GLOBALSTAR M084,2011-080A,2026-07-23T04:56:47.984352,12.62263744,.00006527,52.0003,267.6306,144.7634,223.2491,0,U,38040,999,67331,.7240236E-4,-.91E-6,0
GLOBALSTAR M080,2011-080B,2026-07-23T04:18:54.236160,12.62257668,.00002904,52.0053,269.4420,63.0607,314.9350,0,U,38041,999,67343,.71134868E-4,-.91E-6,0
GLOBALSTAR M082,2011-080C,2026-07-23T02:46:39.414144,12.62264401,.00002267,52.0050,225.1399,45.7169,331.1691,0,U,38042,999,67413,.10297921E-3,-.85E-6,0
GLOBALSTAR M092,2011-080D,2026-07-23T07:56:11.799168,12.62268016,.00006955,52.0104,314.8846,113.6280,279.9921,0,U,38043,999,67261,.80039403E-4,-.89E-6,0
GLOBALSTAR M090,2011-080E,2026-07-23T01:36:33.577920,12.62269661,.0000388,52.0096,219.2551,78.1400,316.3565,0,U,38044,999,67424,.10020112E-3,-.86E-6,0
GLOBALSTAR M086,2011-080F,2026-07-23T02:07:00.740928,12.62287851,.00013814,51.9868,219.0606,122.7660,272.1379,0,U,38045,999,67419,.72555601E-4,-.91E-6,0
GLOBALSTAR M097,2013-005A,2026-07-23T04:35:54.920832,12.62271310,.00006018,52.0037,133.7342,49.3326,310.7593,0,U,39072,999,62145,-.19921992E-4,-.107E-5,0
GLOBALSTAR M093,2013-005B,2026-07-23T03:57:25.232832,12.62266458,.00008241,52.0101,127.1770,55.3218,304.7727,0,U,39073,999,62140,.26942001E-4,-.99E-6,0
GLOBALSTAR M094,2013-005C,2026-07-23T00:09:10.371456,12.62264294,.00010494,51.9969,41.7401,76.0836,284.0147,0,U,39074,999,62299,.20883015E-4,-.1E-5,0
GLOBALSTAR M096,2013-005D,2026-07-22T22:34:37.119360,12.62265940,.00008681,52.0077,90.7705,55.8955,304.1994,0,U,39075,999,62190,.22972058E-4,-.1E-5,0
GLOBALSTAR M078,2013-005E,2026-07-23T05:32:03.782112,12.62260128,.00010298,51.9852,173.8478,0.4878,359.5989,0,U,39076,999,62056,.72058208E-4,-.91E-6,0
GLOBALSTAR M095,2013-005F,2026-07-23T04:16:25.857984,12.62264106,.00006382,52.0060,171.6621,25.4631,334.6267,0,U,39077,999,62041,.48282799E-4,-.95E-6,0
GLOBALSTAR M087,2022-064A,2026-07-23T06:29:17.142720,12.62269513,.00008495,52.0013,312.6008,95.2352,264.8612,0,U,52888,999,19569,.66811172E-4,-.92E-6,0
